COSMOS 2361             
1 25590U 98076A   26093.97297035  .00000068  00000+0  56776-4 0  9991
2 25590  82.9302 261.0820 0030497 315.3575 160.0984 13.73230722366517
COSMOS 2378             
1 26818U 01023A   26094.02846492  .00000066  00000+0  54296-4 0  9998
2 26818  82.9226 276.4721 0031716 253.8136 221.4044 13.74153675244651
COSMOS 2389             
1 27436U 02026A   26093.83023149  .00000069  00000+0  55221-4 0  9995
2 27436  82.9515 224.0041 0047628 106.8722   3.3984 13.75166848196899
COSMOS 2398             
1 27818U 03023A   26094.27307747  .00000080  00000+0  70792-4 0  9998
2 27818  82.9521 189.7760 0032033 158.1493 255.6049 13.72397882143600
COSMOS 2407             
1 28380U 04028A   26094.20604550  .00000084  00000+0  69396-4 0  9996
2 28380  82.9584 129.6329 0040704  99.1012 327.9048 13.76328189 89703
COSMOS 2414             
1 28521U 05002A   26094.13861996  .00000057  00000+0  34800-4 0  9999
2 28521  82.9452  99.6612 0040111 178.4573 181.6721 13.87918539 73544
COSMOS 2429             
1 32052U 07038A   26094.20758936  .00000071  00000+0  57882-4 0  9992
2 32052  82.9766 260.4019 0039693  82.4633 278.1030 13.75160994931481
COSMOS 2454             
1 35635U 09039A   26093.97549290  .00000091  00000+0  60719-4 0  9994
2 35635  82.9525  83.5491 0020570 109.8313 303.3557 13.89944519847091
COSMOS 2463             
1 36519U 10017A   26094.08771861  .00000076  00000+0  67554-4 0  9995
2 36519  82.9583 304.1685 0035652 337.7117 132.4393 13.71660580797777
