[{"OBJECT_NAME":"COSMOS 2361","OBJECT_ID":"1998-076A","EPOCH":"2026-04-03T23:21:04.638240","MEAN_MOTION":13.73230722,"ECCENTRICITY":0.00304977,"INCLINATION":82.9302,"RA_OF_ASC_NODE":261.082,"ARG_OF_PERICENTER":315.3575,"MEAN_ANOMALY":160.0984,"EPHEMERIS_TYPE":0,"CLASSIFICATION_TYPE":"U","NORAD_CAT_ID":25590,"ELEMENT_SET_NO":999,"REV_AT_EPOCH":36651,"BSTAR":5.6775695e-5,"MEAN_MOTION_DOT":6.8e-7,"MEAN_MOTION_DDOT":0},{"OBJECT_NAME":"COSMOS 2378","OBJECT_ID":"2001-023A","EPOCH":"2026-04-04T00:40:59.369088","MEAN_MOTION":13.74153675,"ECCENTRICITY":0.00317169,"INCLINATION":82.9226,"RA_OF_ASC_NODE":276.4721,"ARG_OF_PERICENTER":253.8136,"MEAN_ANOMALY":221.4044,"EPHEMERIS_TYPE":0,"CLASSIFICATION_TYPE":"U","NORAD_CAT_ID":26818,"ELEMENT_SET_NO":999,"REV_AT_EPOCH":24465,"BSTAR":5.4295661e-5,"MEAN_MOTION_DOT":6.6e-7,"MEAN_MOTION_DDOT":0},{"OBJECT_NAME":"COSMOS 2389","OBJECT_ID":"2002-026A","EPOCH":"2026-04-03T19:55:32.000736","MEAN_MOTION":13.75166848,"ECCENTRICITY":0.00476289,"INCLINATION":82.9515,"RA_OF_ASC_NODE":224.0041,"ARG_OF_PERICENTER":106.8722,"MEAN_ANOMALY":3.3984,"EPHEMERIS_TYPE":0,"CLASSIFICATION_TYPE":"U","NORAD_CAT_ID":27436,"ELEMENT_SET_NO":999,"REV_AT_EPOCH":19689,"BSTAR":5.5220727e-5,"MEAN_MOTION_DOT":6.9e-7,"MEAN_MOTION_DDOT":0},{"OBJECT_NAME":"COSMOS 2398","OBJECT_ID":"2003-023A","EPOCH":"2026-04-04T06:33:13.893408","MEAN_MOTION":13.72397882,"ECCENTRICITY":0.00320338,"INCLINATION":82.9521,"RA_OF_ASC_NODE":189.776,"ARG_OF_PERICENTER":158.1493,"MEAN_ANOMALY":255.6049,"EPHEMERIS_TYPE":0,"CLASSIFICATION_TYPE":"U","NORAD_CAT_ID":27818,"ELEMENT_SET_NO":999,"REV_AT_EPOCH":14360,"BSTAR":7.0792299e-5,"MEAN_MOTION_DOT":8.0e-7,"MEAN_MOTION_DDOT":0},{"OBJECT_NAME":"COSMOS 2407","OBJECT_ID":"2004-028A","EPOCH":"2026-04-04T04:56:42.331200","MEAN_MOTION":13.76328189,"ECCENTRICITY":0.00407048,"INCLINATION":82.9584,"RA_OF_ASC_NODE":129.6329,"ARG_OF_PERICENTER":99.1012,"MEAN_ANOMALY":327.9048,"EPHEMERIS_TYPE":0,"CLASSIFICATION_TYPE":"U","NORAD_CAT_ID":28380,"ELEMENT_SET_NO":999,"REV_AT_EPOCH":8970,"BSTAR":6.9395722e-5,"MEAN_MOTION_DOT":8.4e-7,"MEAN_MOTION_DDOT":0},{"OBJECT_NAME":"COSMOS 2414","OBJECT_ID":"2005-002A","EPOCH":"2026-04-04T03:19:36.764544","MEAN_MOTION":13.87918539,"ECCENTRICITY":0.00401115,"INCLINATION":82.9452,"RA_OF_ASC_NODE":99.6612,"ARG_OF_PERICENTER":178.4573,"MEAN_ANOMALY":181.6721,"EPHEMERIS_TYPE":0,"CLASSIFICATION_TYPE":"U","NORAD_CAT_ID":28521,"ELEMENT_SET_NO":999,"REV_AT_EPOCH":7354,"BSTAR":3.4800004e-5,"MEAN_MOTION_DOT":5.7e-7,"MEAN_MOTION_DDOT":0},{"OBJECT_NAME":"COSMOS 2429","OBJECT_ID":"2007-038A","EPOCH":"2026-04-04T04:58:55.720704","MEAN_MOTION":13.75160994,"ECCENTRICITY":0.00396934,"INCLINATION":82.9766,"RA_OF_ASC_NODE":260.4019,"ARG_OF_PERICENTER":82.4633,"MEAN_ANOMALY":278.103,"EPHEMERIS_TYPE":0,"CLASSIFICATION_TYPE":"U","NORAD_CAT_ID":32052,"ELEMENT_SET_NO":999,"REV_AT_EPOCH":93148,"BSTAR":5.7882073e-5,"MEAN_MOTION_DOT":7.1e-7,"MEAN_MOTION_DDOT":0},{"OBJECT_NAME":"COSMOS 2454","OBJECT_ID":"2009-039A","EPOCH":"2026-04-03T23:24:42.586560","MEAN_MOTION":13.89944519,"ECCENTRICITY":0.00205701,"INCLINATION":82.9525,"RA_OF_ASC_NODE":83.5491,"ARG_OF_PERICENTER":109.8313,"MEAN_ANOMALY":303.3557,"EPHEMERIS_TYPE":0,"CLASSIFICATION_TYPE":"U","NORAD_CAT_ID":35635,"ELEMENT_SET_NO":999,"REV_AT_EPOCH":84709,"BSTAR":6.0719023e-5,"MEAN_MOTION_DOT":9.1e-7,"MEAN_MOTION_DDOT":0},{"OBJECT_NAME":"COSMOS 2463","OBJECT_ID":"2010-017A","EPOCH":"2026-04-04T02:06:18.887904","MEAN_MOTION":13.7166058,"ECCENTRICITY":0.00356525,"INCLINATION":82.9583,"RA_OF_ASC_NODE":304.1685,"ARG_OF_PERICENTER":337.7117,"MEAN_ANOMALY":132.4393,"EPHEMERIS_TYPE":0,"CLASSIFICATION_TYPE":"U","NORAD_CAT_ID":36519,"ELEMENT_SET_NO":999,"REV_AT_EPOCH":79777,"BSTAR":6.7553593e-5,"MEAN_MOTION_DOT":7.6e-7,"MEAN_MOTION_DDOT":0}]
